<?xml version="1.0" encoding="UTF-8"?>
<ndm xmlns:xsi="http://www.w3.org/2001/XMLSchema-instance" xsi:noNamespaceSchemaLocation="https://sanaregistry.org/r/ndmxml_unqualified/ndmxml-2.0.0-master-2.0.xsd">
<omm id="CCSDS_OMM_VERS" version="2.0">
<header><CREATION_DATE/><ORIGINATOR/></header><body><segment><metadata><OBJECT_NAME>ORBCOMM-X [-]</OBJECT_NAME><OBJECT_ID>1991-050C</OBJECT_ID><CENTER_NAME>EARTH</CENTER_NAME><REF_FRAME>TEME</REF_FRAME><TIME_SYSTEM>UTC</TIME_SYSTEM><MEAN_ELEMENT_THEORY>SGP4</MEAN_ELEMENT_THEORY></metadata><data><meanElements><EPOCH>2024-04-11T03:23:32.233920</EPOCH><MEAN_MOTION>14.42432696</MEAN_MOTION><ECCENTRICITY>.0004652</ECCENTRICITY><INCLINATION>98.3943</INCLINATION><RA_OF_ASC_NODE>170.4362</RA_OF_ASC_NODE><ARG_OF_PERICENTER>63.5632</ARG_OF_PERICENTER><MEAN_ANOMALY>296.6035</MEAN_ANOMALY></meanElements><tleParameters><EPHEMERIS_TYPE>0</EPHEMERIS_TYPE><CLASSIFICATION_TYPE>U</CLASSIFICATION_TYPE><NORAD_CAT_ID>21576</NORAD_CAT_ID><ELEMENT_SET_NO>999</ELEMENT_SET_NO><REV_AT_EPOCH>71981</REV_AT_EPOCH><BSTAR>.12951E-3</BSTAR><MEAN_MOTION_DOT>.385E-5</MEAN_MOTION_DOT><MEAN_MOTION_DDOT>0</MEAN_MOTION_DDOT></tleParameters></data></segment></body></omm>
<omm id="CCSDS_OMM_VERS" version="2.0">
<header><CREATION_DATE/><ORIGINATOR/></header><body><segment><metadata><OBJECT_NAME>ORBCOMM FM01 [-]</OBJECT_NAME><OBJECT_ID>1995-017A</OBJECT_ID><CENTER_NAME>EARTH</CENTER_NAME><REF_FRAME>TEME</REF_FRAME><TIME_SYSTEM>UTC</TIME_SYSTEM><MEAN_ELEMENT_THEORY>SGP4</MEAN_ELEMENT_THEORY></metadata><data><meanElements><EPOCH>2024-04-11T07:09:58.845600</EPOCH><MEAN_MOTION>14.79265140</MEAN_MOTION><ECCENTRICITY>.0008926</ECCENTRICITY><INCLINATION>69.9682</INCLINATION><RA_OF_ASC_NODE>62.0760</RA_OF_ASC_NODE><ARG_OF_PERICENTER>261.5350</ARG_OF_PERICENTER><MEAN_ANOMALY>98.4787</MEAN_ANOMALY></meanElements><tleParameters><EPHEMERIS_TYPE>0</EPHEMERIS_TYPE><CLASSIFICATION_TYPE>U</CLASSIFICATION_TYPE><NORAD_CAT_ID>23545</NORAD_CAT_ID><ELEMENT_SET_NO>999</ELEMENT_SET_NO><REV_AT_EPOCH>54840</REV_AT_EPOCH><BSTAR>.87952E-3</BSTAR><MEAN_MOTION_DOT>.648E-4</MEAN_MOTION_DOT><MEAN_MOTION_DDOT>0</MEAN_MOTION_DDOT></tleParameters></data></segment></body></omm>
<omm id="CCSDS_OMM_VERS" version="2.0">
<header><CREATION_DATE/><ORIGINATOR/></header><body><segment><metadata><OBJECT_NAME>ORBCOMM FM02 [-]</OBJECT_NAME><OBJECT_ID>1995-017B</OBJECT_ID><CENTER_NAME>EARTH</CENTER_NAME><REF_FRAME>TEME</REF_FRAME><TIME_SYSTEM>UTC</TIME_SYSTEM><MEAN_ELEMENT_THEORY>SGP4</MEAN_ELEMENT_THEORY></metadata><data><meanElements><EPOCH>2024-04-11T09:17:11.414688</EPOCH><MEAN_MOTION>14.78839402</MEAN_MOTION><ECCENTRICITY>.0010719</ECCENTRICITY><INCLINATION>69.9685</INCLINATION><RA_OF_ASC_NODE>81.2304</RA_OF_ASC_NODE><ARG_OF_PERICENTER>257.0067</ARG_OF_PERICENTER><MEAN_ANOMALY>102.9885</MEAN_ANOMALY></meanElements><tleParameters><EPHEMERIS_TYPE>0</EPHEMERIS_TYPE><CLASSIFICATION_TYPE>U</CLASSIFICATION_TYPE><NORAD_CAT_ID>23546</NORAD_CAT_ID><ELEMENT_SET_NO>999</ELEMENT_SET_NO><REV_AT_EPOCH>54806</REV_AT_EPOCH><BSTAR>.88595E-3</BSTAR><MEAN_MOTION_DOT>.6464E-4</MEAN_MOTION_DOT><MEAN_MOTION_DDOT>0</MEAN_MOTION_DDOT></tleParameters></data></segment></body></omm>
<omm id="CCSDS_OMM_VERS" version="2.0">
<header><CREATION_DATE/><ORIGINATOR/></header><body><segment><metadata><OBJECT_NAME>ORBCOMM FM08 [-]</OBJECT_NAME><OBJECT_ID>1997-084A</OBJECT_ID><CENTER_NAME>EARTH</CENTER_NAME><REF_FRAME>TEME</REF_FRAME><TIME_SYSTEM>UTC</TIME_SYSTEM><MEAN_ELEMENT_THEORY>SGP4</MEAN_ELEMENT_THEORY></metadata><data><meanElements><EPOCH>2024-04-11T14:01:24.548160</EPOCH><MEAN_MOTION>14.42300015</MEAN_MOTION><ECCENTRICITY>.0008056</ECCENTRICITY><INCLINATION>45.0144</INCLINATION><RA_OF_ASC_NODE>274.2027</RA_OF_ASC_NODE><ARG_OF_PERICENTER>224.9783</ARG_OF_PERICENTER><MEAN_ANOMALY>135.0415</MEAN_ANOMALY></meanElements><tleParameters><EPHEMERIS_TYPE>0</EPHEMERIS_TYPE><CLASSIFICATION_TYPE>U</CLASSIFICATION_TYPE><NORAD_CAT_ID>25112</NORAD_CAT_ID><ELEMENT_SET_NO>999</ELEMENT_SET_NO><REV_AT_EPOCH>37898</REV_AT_EPOCH><BSTAR>.58462E-3</BSTAR><MEAN_MOTION_DOT>.1805E-4</MEAN_MOTION_DOT><MEAN_MOTION_DDOT>0</MEAN_MOTION_DDOT></tleParameters></data></segment></body></omm>
<omm id="CCSDS_OMM_VERS" version="2.0">
<header><CREATION_DATE/><ORIGINATOR/></header><body><segment><metadata><OBJECT_NAME>ORBCOMM FM10 [-]</OBJECT_NAME><OBJECT_ID>1997-084B</OBJECT_ID><CENTER_NAME>EARTH</CENTER_NAME><REF_FRAME>TEME</REF_FRAME><TIME_SYSTEM>UTC</TIME_SYSTEM><MEAN_ELEMENT_THEORY>SGP4</MEAN_ELEMENT_THEORY></metadata><data><meanElements><EPOCH>2024-04-10T18:11:58.981920</EPOCH><MEAN_MOTION>14.42217658</MEAN_MOTION><ECCENTRICITY>.000586</ECCENTRICITY><INCLINATION>45.0158</INCLINATION><RA_OF_ASC_NODE>279.9786</RA_OF_ASC_NODE><ARG_OF_PERICENTER>193.9490</ARG_OF_PERICENTER><MEAN_ANOMALY>166.1199</MEAN_ANOMALY></meanElements><tleParameters><EPHEMERIS_TYPE>0</EPHEMERIS_TYPE><CLASSIFICATION_TYPE>U</CLASSIFICATION_TYPE><NORAD_CAT_ID>25113</NORAD_CAT_ID><ELEMENT_SET_NO>999</ELEMENT_SET_NO><REV_AT_EPOCH>55401</REV_AT_EPOCH><BSTAR>.56883E-3</BSTAR><MEAN_MOTION_DOT>.1749E-4</MEAN_MOTION_DOT><MEAN_MOTION_DDOT>0</MEAN_MOTION_DDOT></tleParameters></data></segment></body></omm>
<omm id="CCSDS_OMM_VERS" version="2.0">
<header><CREATION_DATE/><ORIGINATOR/></header><body><segment><metadata><OBJECT_NAME>ORBCOMM FM11 [+]</OBJECT_NAME><OBJECT_ID>1997-084C</OBJECT_ID><CENTER_NAME>EARTH</CENTER_NAME><REF_FRAME>TEME</REF_FRAME><TIME_SYSTEM>UTC</TIME_SYSTEM><MEAN_ELEMENT_THEORY>SGP4</MEAN_ELEMENT_THEORY></metadata><data><meanElements><EPOCH>2024-04-11T04:33:54.603648</EPOCH><MEAN_MOTION>14.42100283</MEAN_MOTION><ECCENTRICITY>.000664</ECCENTRICITY><INCLINATION>45.0142</INCLINATION><RA_OF_ASC_NODE>277.9626</RA_OF_ASC_NODE><ARG_OF_PERICENTER>196.5400</ARG_OF_PERICENTER><MEAN_ANOMALY>163.5234</MEAN_ANOMALY></meanElements><tleParameters><EPHEMERIS_TYPE>0</EPHEMERIS_TYPE><CLASSIFICATION_TYPE>U</CLASSIFICATION_TYPE><NORAD_CAT_ID>25114</NORAD_CAT_ID><ELEMENT_SET_NO>999</ELEMENT_SET_NO><REV_AT_EPOCH>37904</REV_AT_EPOCH><BSTAR>.5309E-3</BSTAR><MEAN_MOTION_DOT>.1619E-4</MEAN_MOTION_DOT><MEAN_MOTION_DDOT>0</MEAN_MOTION_DDOT></tleParameters></data></segment></body></omm>
<omm id="CCSDS_OMM_VERS" version="2.0">
<header><CREATION_DATE/><ORIGINATOR/></header><body><segment><metadata><OBJECT_NAME>ORBCOMM FM12 [-]</OBJECT_NAME><OBJECT_ID>1997-084D</OBJECT_ID><CENTER_NAME>EARTH</CENTER_NAME><REF_FRAME>TEME</REF_FRAME><TIME_SYSTEM>UTC</TIME_SYSTEM><MEAN_ELEMENT_THEORY>SGP4</MEAN_ELEMENT_THEORY></metadata><data><meanElements><EPOCH>2024-04-11T13:33:29.378304</EPOCH><MEAN_MOTION>14.42068677</MEAN_MOTION><ECCENTRICITY>.0005702</ECCENTRICITY><INCLINATION>45.0149</INCLINATION><RA_OF_ASC_NODE>275.8602</RA_OF_ASC_NODE><ARG_OF_PERICENTER>198.5994</ARG_OF_PERICENTER><MEAN_ANOMALY>161.4648</MEAN_ANOMALY></meanElements><tleParameters><EPHEMERIS_TYPE>0</EPHEMERIS_TYPE><CLASSIFICATION_TYPE>U</CLASSIFICATION_TYPE><NORAD_CAT_ID>25115</NORAD_CAT_ID><ELEMENT_SET_NO>999</ELEMENT_SET_NO><REV_AT_EPOCH>37889</REV_AT_EPOCH><BSTAR>.54402E-3</BSTAR><MEAN_MOTION_DOT>.1661E-4</MEAN_MOTION_DOT><MEAN_MOTION_DDOT>0</MEAN_MOTION_DDOT></tleParameters></data></segment></body></omm>
<omm id="CCSDS_OMM_VERS" version="2.0">
<header><CREATION_DATE/><ORIGINATOR/></header><body><segment><metadata><OBJECT_NAME>ORBCOMM FM09 [-]</OBJECT_NAME><OBJECT_ID>1997-084E</OBJECT_ID><CENTER_NAME>EARTH</CENTER_NAME><REF_FRAME>TEME</REF_FRAME><TIME_SYSTEM>UTC</TIME_SYSTEM><MEAN_ELEMENT_THEORY>SGP4</MEAN_ELEMENT_THEORY></metadata><data><meanElements><EPOCH>2024-04-11T13:48:48.754656</EPOCH><MEAN_MOTION>14.42036369</MEAN_MOTION><ECCENTRICITY>.0006814</ECCENTRICITY><INCLINATION>45.0153</INCLINATION><RA_OF_ASC_NODE>276.4876</RA_OF_ASC_NODE><ARG_OF_PERICENTER>186.2180</ARG_OF_PERICENTER><MEAN_ANOMALY>173.8587</MEAN_ANOMALY></meanElements><tleParameters><EPHEMERIS_TYPE>0</EPHEMERIS_TYPE><CLASSIFICATION_TYPE>U</CLASSIFICATION_TYPE><NORAD_CAT_ID>25116</NORAD_CAT_ID><ELEMENT_SET_NO>999</ELEMENT_SET_NO><REV_AT_EPOCH>37910</REV_AT_EPOCH><BSTAR>.58251E-3</BSTAR><MEAN_MOTION_DOT>.1788E-4</MEAN_MOTION_DOT><MEAN_MOTION_DDOT>0</MEAN_MOTION_DDOT></tleParameters></data></segment></body></omm>

</ndm>
