ORBCOMM-X [-]           
1 21576U 91050C   24102.14134530  .00000385  00000+0  12951-3 0  9992
2 21576  98.3943 170.4362 0004652  63.5632 296.6035 14.42432696719812
ORBCOMM FM01 [-]        
1 23545U 95017A   24102.29859775  .00006480  00000+0  87952-3 0  9993
2 23545  69.9682  62.0760 0008926 261.5350  98.4787 14.79265140548402
ORBCOMM FM02 [-]        
1 23546U 95017B   24102.38693767  .00006464  00000+0  88595-3 0  9997
2 23546  69.9685  81.2304 0010719 257.0067 102.9885 14.78839402548060
ORBCOMM FM08 [-]        
1 25112U 97084A   24102.58431190  .00001805  00000+0  58462-3 0  9990
2 25112  45.0144 274.2027 0008056 224.9783 135.0415 14.42300015378983
ORBCOMM FM10 [-]        
1 25113U 97084B   24101.75832155  .00001749  00000+0  56883-3 0  9997
2 25113  45.0158 279.9786 0005860 193.9490 166.1199 14.42217658554017
ORBCOMM FM11 [+]        
1 25114U 97084C   24102.19021532  .00001619  00000+0  53090-3 0  9999
2 25114  45.0142 277.9626 0006640 196.5400 163.5234 14.42100283379043
ORBCOMM FM12 [-]        
1 25115U 97084D   24102.56492336  .00001661  00000+0  54402-3 0  9990
2 25115  45.0149 275.8602 0005702 198.5994 161.4648 14.42068677378898
ORBCOMM FM09 [-]        
1 25116U 97084E   24102.57556429  .00001788  00000+0  58251-3 0  9992
2 25116  45.0153 276.4876 0006814 186.2180 173.8587 14.42036369379107
